NOAA 1                  
1 04793U 70106A   24192.37586909 -.00000021  00000+0  14160-3 0  9990
2 04793 101.4445 243.7267 0031019 291.7747  79.3019 12.54029519452093
NOAA 2 (ITOS-D)         
1 06235U 72082A   24192.95094767 -.00000023  00000+0  14812-3 0  9994
2 06235 102.0151 192.1968 0004522  76.9858 338.3411 12.53182275366486
NOAA 3                  
1 06920U 73086A   24192.99599137 -.00000034  00000+0  88970-4 0  9994
2 06920 102.2758 189.1926 0006484 346.3046  77.0294 12.40368392294347
NOAA 4                  
1 07529U 74089A   24192.99714146 -.00000038  00000+0  51604-4 0  9991
2 07529 101.9875 187.4779 0009424 102.0123 266.7927 12.53181443271064
NOAA 5                  
1 09057U 76077A   24192.87596021 -.00000020  00000+0  19580-3 0  9992
2 09057 102.2079 166.2622 0009397 189.8735 225.0077 12.37801899167081
TIROS N                 
1 11060U 78096A   24192.97367828  .00000237  00000+0  13412-3 0  9991
2 11060  98.5306 232.4777 0011538 124.1397 236.0875 14.18845617578587
NOAA 6                  
1 11416U 79057A   24192.96672902  .00000434  00000+0  16940-3 0  9993
2 11416  98.6277 214.1604 0009996 183.2804 176.8317 14.34566212349666
NOAA 7                  
1 12553U 81059A   24192.41454133  .00000093  00000+0  67744-4 0  9995
2 12553  98.8922 251.7587 0012370 125.6628 234.5700 14.17541015224608
NOAA 8                  
1 13923U 83022A   24193.57570991  .00000224  00000+0  10560-3 0  9997
2 13923  98.7300 193.5827 0015317 157.8438 202.3409 14.29272658150254
NOAA 9                  
1 15427U 84123A   24193.62032154  .00000197  00000+0  12220-3 0  9995
2 15427  99.1180 191.6562 0014622 183.2474 285.5464 14.16617121 43509
NOAA 10                 
1 16969U 86073A   24193.58878747  .00000216  00000+0  10357-3 0  9995
2 16969  98.6415 179.2932 0010925 260.2255 210.5288 14.28645325968636
NOAA 11                 
1 19531U 88089A   24193.53206329  .00000094  00000+0  69187-4 0  9998
2 19531  98.5193 155.0257 0011422 159.1766 200.9876 14.15549702847634
NOAA 12                 
1 21263U 91032A   24193.54813183  .00000163  00000+0  85739-4 0  9996
2 21263  98.5581 184.1150 0012586 292.8514  67.1337 14.26334060724352
NOAA 13                 
1 22739U 93050A   24193.50029854  .00000185  00000+0  12101-3 0  9993
2 22739  98.6070 150.0824 0009349 351.3929   8.7082 14.13235654593682
NOAA 14                 
1 23455U 94089A   24193.56712812  .00000082  00000+0  63918-4 0  9990
2 23455  98.4325 188.2217 0008633 318.2853  41.7662 14.14407857523446
NOAA 15                 
1 25338U 98030A   24193.57382028  .00000295  00000+0  13994-3 0  9999
2 25338  98.5673 220.1904 0009150 250.9788 109.0402 14.26624297360663
NOAA 16                 
1 26536U 00055A   24193.57356229  .00000119  00000+0  85184-4 0  9990
2 26536  98.5297 232.0550 0010863 160.1778 199.9819 14.13598392524023
NOAA 17                 
1 27453U 02032A   24193.56339091  .00000271  00000+0  13326-3 0  9990
2 27453  98.7637 144.1427 0010673 235.2824 124.7350 14.25610567146425
NOAA 18                 
1 28654U 05018A   24193.56284135  .00000276  00000+0  17101-3 0  9999
2 28654  98.8740 270.3256 0013970 358.9190   1.1950 14.13249901986613
NOAA 19                 
1 33591U 09005A   24193.58851125  .00000259  00000+0  16308-3 0  9995
2 33591  99.0457 249.6446 0013207 219.9025 140.1177 14.13044678794811
SUOMI NPP               
1 37849U 11061A   24193.57129622  .00000137  00000+0  85860-4 0  9994
2 37849  98.7221 131.1857 0001218 126.8007 233.3281 14.19527609658335
NOAA 20 (JPSS-1)        
1 43013U 17073A   24193.51798629  .00000130  00000+0  82305-4 0  9990
2 43013  98.7064 131.0327 0001960 120.6990 239.4379 14.19541540344357
NOAA 21 (JPSS-2)        
1 54234U 22150A   24193.55366243  .00000127  00000+0  80902-4 0  9993
2 54234  98.7517 131.1625 0001952  80.7212 279.4185 14.19536496 86438
